NORAD_CAT_ID,OBJECT_NAME,OBJECT_TYPE,EPOCH,MEAN_MOTION,ECCENTRICITY,INCLINATION,RA_OF_ASC_NODE,ARG_OF_PERICENTER,MEAN_ANOMALY,BSTAR,MEAN_MOTION_DOT,MEAN_MOTION_DDOT,TLE_LINE0,TLE_LINE1,TLE_LINE2,SEMIMAJOR_AXIS,PERIOD,APOGEE,PERIGEE,DECAYED
49763.0,STARLINK-3198,PAYLOAD,2024-06-23 21:58:08,15.08841746,0.0001152,53.2177,59.3525,108.1713,251.9404,9.4876e-05,1.223e-05,0.0,0 STARLINK-3198,1 49763U 21115AR  24175.91537293  .00001223  00000-0  94876-4 0  9993,2 49763  53.2177  59.3525 0001152 108.1713 251.9404 15.08841746141516,6917.875,95.437,540.537,538.943,0.0
49763.0,STARLINK-3198,PAYLOAD,2024-06-24 02:44:17,15.08843877,0.0001181,53.2178,58.4602,110.4205,249.6914,0.00010902,1.448e-05,0.0,0 STARLINK-3198,1 49763U 21115AR  24176.11409106  .00001448  00000-0  10902-3 0  9993,2 49763  53.2178  58.4602 0001181 110.4205 249.6914 15.08843877142650,6917.869,95.437,540.551,538.917,0.0
49763.0,STARLINK-3198,PAYLOAD,2024-06-24 20:13:32,15.08838457,0.0001204,53.2178,55.189,112.8084,247.3035,0.00010701,1.416e-05,0.0,0 STARLINK-3198,1 49763U 21115AR  24176.84273471  .00001416  00000-0  10701-3 0  9999,2 49763  53.2178  55.1890 0001204 112.8084 247.3035 15.08838457142769,6917.885,95.438,540.583,538.917,0.0
49763.0,STARLINK-3198,PAYLOAD,2024-06-24 21:48:55,15.08838768,0.0001205,53.2178,54.8917,112.6566,247.4553,0.00010769,1.426e-05,0.0,0 STARLINK-3198,1 49763U 21115AR  24176.90897462  .00001426  00000-0  10769-3 0  9993,2 49763  53.2178  54.8917 0001205 112.6566 247.4553 15.08838768141668,6917.884,95.438,540.583,538.916,0.0
49763.0,STARLINK-3198,PAYLOAD,2024-06-24 23:24:18,15.08839022,0.0001163,53.2178,54.5943,109.9181,250.1937,0.00010645,1.407e-05,0.0,0 STARLINK-3198,1 49763U 21115AR  24176.97521467  .00001407  00000-0  10645-3 0  9991,2 49763  53.2178  54.5943 0001163 109.9181 250.1937 15.08839022141671,6917.883,95.438,540.553,538.944,0.0
49763.0,STARLINK-3198,PAYLOAD,2024-06-25 21:39:42,15.08843735,0.0001164,53.2181,50.4292,95.3122,264.8003,7.8335e-05,9.59e-06,0.0,0 STARLINK-3198,1 49763U 21115AR  24177.90257265  .00000959  00000-0  78335-4 0  9999,2 49763  53.2181  50.4292 0001164  95.3122 264.8003 15.08843735141819,6917.869,95.437,540.539,538.929,0.0
49763.0,STARLINK-3198,PAYLOAD,2024-06-25 23:15:05,15.08845902,0.0001163,53.2181,50.1317,90.686,269.4265,9.5192e-05,1.228e-05,0.0,0 STARLINK-3198,1 49763U 21115AR  24177.96881084  .00001228  00000-0  95192-4 0  9997,2 49763  53.2181  50.1317 0001163  90.6860 269.4265 15.08845902142933,6917.862,95.437,540.532,538.923,0.0
49763.0,STARLINK-3198,PAYLOAD,2024-06-27 08:38:11,15.08842894,0.0001229,53.2178,43.8909,85.6269,274.4864,8.4036e-05,1.05e-05,0.0,0 STARLINK-3198,1 49763U 21115AR  24179.35985320  .00001050  00000-0  84036-4 0  9998,2 49763  53.2178  43.8909 0001229  85.6269 274.4864 15.08842894143147,6917.872,95.437,540.587,538.886,0.0
49763.0,STARLINK-3198,PAYLOAD,2024-06-27 21:21:16,15.08838791,0.0001378,53.2181,41.5087,105.0923,255.0222,-2.5333e-05,-6.91e-06,0.0,0 STARLINK-3198,1 49763U 21115AR  24179.88977803 -.00000691  00000-0 -25333-4 0  9990,2 49763  53.2181  41.5087 0001378 105.0923 255.0222 15.08838791143225,6917.884,95.438,540.702,538.796,0.0
49763.0,STARLINK-3198,PAYLOAD,2024-06-28 19:36:40,15.08836147,0.0001584,53.2173,37.3447,115.9759,244.1396,0.00020419,2.963e-05,0.0,0 STARLINK-3198,1 49763U 21115AR  24180.81714006  .00002963  00000-0  20419-3 0  9990,2 49763  53.2173  37.3447 0001584 115.9759 244.1396 15.08836147142251,6917.892,95.438,540.853,538.661,0.0
49763.0,STARLINK-3198,PAYLOAD,2024-06-29 14:41:18,15.08836325,0.0001537,53.2173,33.7767,114.8405,245.2748,0.00013597,1.876e-05,0.0,0 STARLINK-3198,1 49763U 21115AR  24181.61202311  .00001876  00000-0  13597-3 0  9991,2 49763  53.2173  33.7767 0001537 114.8405 245.2748 15.08836325142374,6917.892,95.438,540.82,538.693,0.0
49763.0,STARLINK-3198,PAYLOAD,2024-06-29 19:27:28,15.08820748,0.0001143,53.2173,32.8842,104.3458,255.7661,-9.762e-05,-1.84e-05,0.0,0 STARLINK-3198,1 49763U 21115AR  24181.81075151 -.00001840  00000-0 -97620-4 0  9996,2 49763  53.2173  32.8842 0001143 104.3458 255.7661 15.08820748143512,6917.939,95.439,540.595,539.014,0.0
49763.0,STARLINK-3198,PAYLOAD,2024-06-29 21:02:52,15.0882349,0.000107,53.2164,32.5837,93.5815,266.5299,-9.1251e-05,-1.739e-05,0.0,0 STARLINK-3198,1 49763U 21115AR  24181.87699087 -.00001739  00000-0 -91251-4 0  9993,2 49763  53.2164  32.5837 0001070  93.5815 266.5299 15.08823490142410,6917.931,95.439,540.536,539.056,0.0
49763.0,STARLINK-3198,PAYLOAD,2024-06-30 06:35:10,15.08831842,0.0001453,53.218,30.8114,128.8589,231.2533,7.7137e-06,-1.65e-06,0.0,0 STARLINK-3198,1 49763U 21115AR  24182.27442844 -.00000165  00000-0  77137-5 0  9994,2 49763  53.2180  30.8114 0001453 128.8589 231.2533 15.08831842143581,6917.905,95.438,540.775,538.765,0.0
49763.0,STARLINK-3198,PAYLOAD,2024-06-30 14:32:06,15.08839022,0.0001094,53.2172,29.3199,115.8878,244.2227,4.5877e-05,4.42e-06,0.0,0 STARLINK-3198,1 49763U 21115AR  24182.60562676  .00000442  00000-0  45877-4 0  9999,2 49763  53.2172  29.3199 0001094 115.8878 244.2227 15.08839022142521,6917.883,95.438,540.505,538.992,0.0
49763.0,STARLINK-3198,PAYLOAD,2024-06-30 20:53:38,15.08849628,0.0001211,53.2175,28.1334,116.4472,243.6645,0.0003369,5.079e-05,0.0,0 STARLINK-3198,1 49763U 21115AR  24182.87058355  .00005079  00000-0  33690-3 0  9992,2 49763  53.2175  28.1334 0001211 116.4472 243.6645 15.08849628143677,6917.851,95.437,540.554,538.878,0.0
49763.0,STARLINK-3198,PAYLOAD,2024-07-01 06:25:56,15.08865156,7.89e-05,53.2171,26.3416,83.9934,276.1148,0.00060255,9.321e-05,0.0,0 STARLINK-3198,1 49763U 21115AR  24183.26801475  .00009321  00000-0  60255-3 0  9996,2 49763  53.2171  26.3416 0000789  83.9934 276.1148 15.08865156143734,6917.803,95.436,540.214,539.123,0.0
49763.0,STARLINK-3198,PAYLOAD,2024-07-01 20:44:25,15.08846364,9.35e-05,53.2175,23.6727,92.0345,268.0754,0.00013522,1.865e-05,0.0,0 STARLINK-3198,1 49763U 21115AR  24183.86418095  .00001865  00000-0  13522-3 0  9994,2 49763  53.2175  23.6727 0000935  92.0345 268.0754 15.08846364143826,6917.861,95.437,540.373,539.079,0.0
49763.0,STARLINK-3198,PAYLOAD,2024-07-01 22:19:48,15.08850987,9.25e-05,53.2175,23.3752,95.9486,264.1612,0.00043053,6.573e-05,0.0,0 STARLINK-3198,1 49763U 21115AR  24183.93042032  .00006573  00000-0  43053-3 0  9999,2 49763  53.2175  23.3752 0000925  95.9486 264.1612 15.08850987142722,6917.847,95.437,540.352,539.072,0.0
49763.0,STARLINK-3198,PAYLOAD,2024-07-02 06:16:44,15.08848019,9.69e-05,53.2175,21.8882,87.6878,272.4225,0.00096849,0.00015163,0.0,0 STARLINK-3198,1 49763U 21115AR  24184.26162200  .00015163  00000-0  96849-3 0  9992,2 49763  53.2175  21.8882 0000969  87.6878 272.4225 15.08848019142770,6917.856,95.437,540.391,539.051,0.0
49763.0,STARLINK-3198,PAYLOAD,2024-07-02 18:59:49,15.0883901,6.47e-05,53.2153,19.5053,88.4137,271.6929,0.0012266,0.00019287,0.0,0 STARLINK-3198,1 49763U 21115AR  24184.79154559  .00019287  00000-0  12266-2 0  9999,2 49763  53.2153  19.5053 0000647  88.4137 271.6929 15.08839010143965,6917.883,95.438,540.196,539.301,0.0
49763.0,STARLINK-3198,PAYLOAD,2024-07-02 22:10:35,15.08842603,7.37e-05,53.2162,18.9119,87.2326,272.875,0.0015424,0.00024346,0.0,0 STARLINK-3198,1 49763U 21115AR  24184.92402578  .00024346  00000-0  15424-2 0  9992,2 49763  53.2162  18.9119 0000737  87.2326 272.8750 15.08842603142874,6917.872,95.437,540.247,539.228,0.0
49763.0,STARLINK-3198,PAYLOAD,2024-07-03 12:29:04,15.08857878,0.0002783,53.2159,16.2397,78.5824,281.5481,0.0014759,0.00023291,0.0,0 STARLINK-3198,1 49763U 21115AR  24185.52018890  .00023291  00000-0  14759-2 0  9997,2 49763  53.2159  16.2397 0002783  78.5824 281.5481 15.08857878144070,6917.826,95.436,541.616,537.766,0.0
49763.0,STARLINK-3198,PAYLOAD,2024-07-03 20:25:59,15.08843254,9.12e-05,53.216,14.7501,94.8418,265.2678,0.00064487,9.991e-05,0.0,0 STARLINK-3198,1 49763U 21115AR  24185.85138556  .00009991  00000-0  64487-3 0  9990,2 49763  53.2160  14.7501 0000912  94.8418 265.2678 15.08843254144120,6917.87,95.437,540.366,539.105,0.0
49763.0,STARLINK-3198,PAYLOAD,2024-07-04 12:19:51,15.08840044,8.22e-05,53.2158,11.7741,110.9043,249.2037,0.00027377,4.072e-05,0.0,0 STARLINK-3198,1 49763U 21115AR  24186.51378488  .00004072  00000-0  27377-3 0  9996,2 49763  53.2158  11.7741 0000822 110.9043 249.2037 15.08840044144220,6917.88,95.438,540.314,539.177,0.0
49763.0,STARLINK-3198,PAYLOAD,2024-07-04 18:41:23,15.08846655,0.0001049,53.2155,10.5856,101.3308,258.7802,0.0013513,0.00021287,0.0,0 STARLINK-3198,1 49763U 21115AR  24186.77874602  .00021287  00000-0  13513-2 0  9996,2 49763  53.2155  10.5856 0001049 101.3308 258.7802 15.08846655143151,6917.86,95.437,540.451,538.999,0.0
49763.0,STARLINK-3198,PAYLOAD,2024-07-05 12:10:38,15.08856603,0.0001699,53.2161,7.3154,82.7187,277.3998,0.00093508,0.00014632,0.0,0 STARLINK-3198,1 49763U 21115AR  24187.50738562  .00014632  00000-0  93508-3 0  9991,2 49763  53.2161   7.3154 0001699  82.7187 277.3998 15.08856603144373,6917.83,95.437,540.87,538.519,0.0
49763.0,STARLINK-3198,PAYLOAD,2024-07-05 18:32:10,15.08847788,9.24e-05,53.2167,6.1263,81.9764,278.1333,0.00038482,5.843e-05,0.0,0 STARLINK-3198,1 49763U 21115AR  24187.77234440  .00005843  00000-0  38482-3 0  9990,2 49763  53.2167   6.1263 0000924  81.9764 278.1333 15.08847788144410,6917.857,95.437,540.361,539.082,0.0
49763.0,STARLINK-3198,PAYLOAD,2024-07-05 21:42:56,15.0885488,9.71e-05,53.2174,5.5309,82.2904,277.8198,0.0008322,0.00012987,0.0,0 STARLINK-3198,1 49763U 21115AR  24187.90482309  .00012987  00000-0  83220-3 0  9991,2 49763  53.2174   5.5309 0000971  82.2904 277.8198 15.08854880143329,6917.835,95.437,540.372,539.028,0.0
49763.0,STARLINK-3198,PAYLOAD,2024-07-06 12:01:25,15.08842067,0.0001092,53.2165,2.8541,71.8686,288.2425,0.00039807,6.053e-05,0.0,0 STARLINK-3198,1 49763U 21115AR  24188.50098753  .00006053  00000-0  39807-3 0  9993,2 49763  53.2165   2.8541 0001092  71.8686 288.2425 15.08842067144529,6917.874,95.437,540.495,538.984,0.0
